{
    "links": {
        "self": "http://www.neowsapp.com/rest/v1/neo/54054331?api_key=iIulBulltgU6a56xZRHN4H3l9WmuAYTsLGpBGhQ2"
    },
    "id": "54054331",
    "neo_reference_id": "54054331",
    "name": "(2020 RY6)",
    "designation": "2020 RY6",
    "nasa_jpl_url": "http://ssd.jpl.nasa.gov/sbdb.cgi?sstr=54054331",
    "absolute_magnitude_h": 25.226,
    "estimated_diameter": {
        "kilometers": {
            "estimated_diameter_min": 0.0239527277,
            "estimated_diameter_max": 0.0535599273
        },
        "meters": {
            "estimated_diameter_min": 23.9527276585,
            "estimated_diameter_max": 53.5599272911
        },
        "miles": {
            "estimated_diameter_min": 0.0148835303,
            "estimated_diameter_max": 0.0332805856
        },
        "feet": {
            "estimated_diameter_min": 78.5850670113,
            "estimated_diameter_max": 175.7215518536
        }
    },
    "is_potentially_hazardous_asteroid": false,
    "close_approach_data": [
        {
            "close_approach_date": "2020-08-29",
            "close_approach_date_full": "2020-Aug-29 01:32",
            "epoch_date_close_approach": 1598664720000,
            "relative_velocity": {
                "kilometers_per_second": "10.0967996922",
                "kilometers_per_hour": "36348.4788920111",
                "miles_per_hour": "22585.5312315388"
            },
            "miss_distance": {
                "astronomical": "0.1088391601",
                "lunar": "42.3384332789",
                "kilometers": "16282106.523548987",
                "miles": "10117231.8514585406"
            },
            "orbiting_body": "Earth"
        }
    ],
    "orbital_data": {
        "orbit_id": "1",
        "orbit_determination_date": "2020-09-15 21:12:10",
        "first_observation_date": "2020-09-13",
        "last_observation_date": "2020-09-15",
        "data_arc_in_days": 2,
        "observations_used": 11,
        "orbit_uncertainty": "9",
        "minimum_orbit_intersection": ".108707",
        "jupiter_tisserand_invariant": "3.255",
        "epoch_osculation": "2459106.5",
        "eccentricity": ".5559439626692345",
        "semi_major_axis": "2.420469974382659",
        "inclination": "12.96656070611314",
        "ascending_node_longitude": "351.1092904284996",
        "orbital_period": "1375.460035540332",
        "perihelion_distance": "1.074824305302463",
        "perihelion_argument": "324.5585563729143",
        "aphelion_distance": "3.766115643462856",
        "perihelion_time": "2459071.953348834860",
        "mean_anomaly": "9.04191623027765",
        "mean_motion": ".261730614265778",
        "equinox": "J2000",
        "orbit_class": {
            "orbit_class_type": "AMO",
            "orbit_class_description": "Near-Earth asteroid orbits similar to that of 1221 Amor",
            "orbit_class_range": "1.017 AU < q (perihelion) < 1.3 AU"
        }
    },
    "is_sentry_object": false
}